{"spkid": "50339690", "covariance": {"epoch": "2457249.5", "labels": ["e", "q", "tp", "node", "peri", "i"], "data": [["1.146705978447959E-13", "-1.359061293806585E-13", "2.748475822550017E-11", "-5.202435820047969E-13", "3.691730200518389E-11", "8.307580280744195E-13"], ["-1.359061293806585E-13", "1.610746400140974E-13", "-3.256623517511401E-11", "6.233230024164713E-13", "-4.375388875756751E-11", "-9.845060897782602E-13"], ["2.748475822550017E-11", "-3.256623517511401E-11", "6.769132070796858E-9", "2.152928985228638E-11", "8.853376465690031E-9", "2.011686560009492E-10"], ["-5.202435820047969E-13", "6.233230024164713E-13", "2.152928985228638E-11", "1.351768006140988E-9", "-1.392605801776568E-9", "-7.568781673582788E-11"], ["3.691730200518389E-11", "-4.375388875756751E-11", "8.853376465690031E-9", "-1.392605801776568E-9", "1.311318894538393E-8", "3.409543068940207E-10"], ["8.307580280744195E-13", "-9.845060897782602E-13", "2.011686560009492E-10", "-7.568781673582788E-11", "3.409543068940207E-10", "1.424624573419975E-11"]], "elements": [{"label": "e", "sigma": 3.38630473886796e-07, "name": "e", "title": "eccentricity", "value": ".224379498072311", "units": null}, {"sigma": 4.01341051992065e-07, "name": "q", "units": "au", "value": ".9244859489005947", "title": "perihelion distance", "label": "q"}, {"label": "tp", "units": "TDB", "value": "2457362.100370038062", "title": "time of perihelion passage", "name": "tp", "sigma": 8.22747353128338e-05}, {"title": "longitude of the ascending node", "value": "166.0600396211318", "units": "deg", "name": "om", "sigma": 3.67663977857634e-05, "label": "node"}, {"name": "w", "sigma": 0.000114512833103473, "units": "deg", "title": "argument of perihelion", "value": "236.6783878659066", "label": "peri"}, {"label": "i", "name": "i", "sigma": 3.77441992022612e-06, "title": "inclination", "value": "1.071177853501964", "units": "deg"}]}, "elements": [{"label": "e", "sigma": "3.3668E-7", "name": "e", "units": null, "value": ".2245744556569396", "title": "eccentricity"}, {"units": "au", "value": "1.192916486779021", "title": "semi-major axis", "sigma": "6.821E-9", "name": "a", "label": "a"}, {"title": "perihelion distance", "value": ".9250179161164339", "units": "au", "sigma": "4.0687E-7", "name": "q", "label": "q"}, {"value": "1.06874228613231", "title": "inclination; angle with respect to x-y ecliptic plane", "units": "deg", "name": "i", "sigma": "3.7876E-6", "label": "i"}, {"label": "node", "name": "om", "sigma": "3.6848E-5", "units": "deg", "value": "165.7860600914718", "title": "longitude of the ascending node"}, {"label": "peri", "units": "deg", "value": "236.6358214594642", "title": "argument of perihelion", "sigma": ".00011843", "name": "w"}, {"label": "M", "title": "mean anomaly", "value": "24.96476762607858", "units": "deg", "sigma": "5.7208E-5", "name": "ma"}, {"title": "time of perihelion passage", "value": "2461167.498132576295", "units": "TDB", "sigma": "7.5907E-5", "name": "tp", "label": "tp"}, {"label": "period", "value": "475.8975709480741", "title": "sidereal orbital period", "units": "d", "name": "per", "sigma": "4.0817E-6"}, {"sigma": "6.4881E-9", "name": "n", "value": ".7564653025709184", "title": "mean motion", "units": "deg/d", "label": "n"}, {"label": "Q", "name": "ad", "sigma": "8.3528E-9", "units": "au", "value": "1.460815057441609", "title": "aphelion distance"}], "epoch": "2461200.5"}